NORAD_CAT_ID,OBJECT_NAME,OBJECT_TYPE,EPOCH,MEAN_MOTION,ECCENTRICITY,INCLINATION,RA_OF_ASC_NODE,ARG_OF_PERICENTER,MEAN_ANOMALY,BSTAR,MEAN_MOTION_DOT,MEAN_MOTION_DDOT,TLE_LINE0,TLE_LINE1,TLE_LINE2,SEMIMAJOR_AXIS,PERIOD,APOGEE,PERIGEE,DECAYED
53141.0,STARLINK-4103,PAYLOAD,2024-01-03 16:54:31,15.08835953,0.0001502,53.217,147.437,74.1835,285.9323,7.464e-06,-1.69e-06,0.0,0 STARLINK-4103,1 53141U 22083K   24003.70452882 -.00000169  00000-0  74640-5 0  9997,2 53141  53.2170 147.4370 0001502  74.1835 285.9323 15.08835953 81059,6917.893,95.438,540.797,538.719,0.0
53141.0,STARLINK-4103,PAYLOAD,2024-01-04 08:48:20,15.08854557,0.0001358,53.217,144.4591,110.081,250.0329,0.00014979,2.098e-05,0.0,0 STARLINK-4103,1 53141U 22083K   24004.36690693  .00002098  00000-0  14979-3 0  9993,2 53141  53.2170 144.4591 0001358 110.0810 250.0329 15.08854557 81783,6917.836,95.437,540.64,538.761,0.0
53141.0,STARLINK-4103,PAYLOAD,2024-01-04 11:59:06,15.0886346,0.0001461,53.2172,143.8675,83.2639,276.852,0.00023051,3.385e-05,0.0,0 STARLINK-4103,1 53141U 22083K   24004.49937870  .00003385  00000-0  23051-3 0  9999,2 53141  53.2172 143.8675 0001461  83.2639 276.8520 15.08863460 81171,6917.809,95.436,540.684,538.663,0.0
53141.0,STARLINK-4103,PAYLOAD,2024-01-04 16:45:15,15.08866774,0.0001442,53.2172,142.9754,83.8585,276.2571,0.00024802,3.664e-05,0.0,0 STARLINK-4103,1 53141U 22083K   24004.69809334  .00003664  00000-0  24802-3 0  9999,2 53141  53.2172 142.9754 0001442  83.8585 276.2571 15.08866774 81838,6917.799,95.436,540.661,538.666,0.0
53141.0,STARLINK-4103,PAYLOAD,2024-01-05 08:39:09,15.08834247,0.0001529,53.2173,140.0016,91.6434,268.4734,-2.8611e-05,-7.43e-06,0.0,0 STARLINK-4103,1 53141U 22083K   24005.36052304 -.00000743  00000-0 -28611-4 0  9991,2 53141  53.2173 140.0016 0001529  91.6434 268.4734 15.08834247 81930,6917.898,95.438,540.821,538.705,0.0
53141.0,STARLINK-4103,PAYLOAD,2024-01-05 13:25:18,15.08830626,0.0001352,53.2171,139.1085,84.9664,275.1482,-6.6998e-05,-1.354e-05,0.0,0 STARLINK-4103,1 53141U 22083K   24005.55924762 -.00001354  00000-0 -66998-4 0  9997,2 53141  53.2171 139.1085 0001352  84.9664 275.1482 15.08830626 81333,6917.909,95.438,540.709,538.839,0.0
53141.0,STARLINK-4103,PAYLOAD,2024-01-05 15:00:42,15.08829832,0.0001317,53.2174,138.8103,101.0883,259.0257,-8.7446e-05,-1.679e-05,0.0,0 STARLINK-4103,1 53141U 22083K   24005.62548808 -.00001679  00000-0 -87446-4 0  9999,2 53141  53.2174 138.8103 0001317 101.0883 259.0257 15.08829832 81347,6917.911,95.438,540.688,538.865,0.0
53141.0,STARLINK-4103,PAYLOAD,2024-01-06 11:40:42,15.08846894,0.000122,53.217,134.9468,87.923,272.1901,-0.00017383,-3.054e-05,0.0,0 STARLINK-4103,1 53141U 22083K   24006.48660127 -.00003054  00000-0 -17383-3 0  9994,2 53141  53.2170 134.9468 0001220  87.9230 272.1901 15.08846894 82109,6917.859,95.437,540.568,538.88,0.0
53141.0,STARLINK-4103,PAYLOAD,2024-01-06 14:51:28,15.08850803,0.0001353,53.2171,134.3508,93.8533,266.2614,-0.00013953,-2.509e-05,0.0,0 STARLINK-4103,1 53141U 22083K   24006.61907733 -.00002509  00000-0 -13953-3 0  9999,2 53141  53.2171 134.3508 0001353  93.8533 266.2614 15.08850803 81499,6917.847,95.437,540.648,538.776,0.0
53141.0,STARLINK-4103,PAYLOAD,2024-01-07 08:20:43,15.08825366,0.0001508,53.2169,131.0825,59.6077,300.5064,0.00012917,1.768e-05,0.0,0 STARLINK-4103,1 53141U 22083K   24007.34772839  .00001768  00000-0  12917-3 0  9990,2 53141  53.2169 131.0825 0001508  59.6077 300.5064 15.08825366 82237,6917.925,95.438,540.833,538.747,0.0
53141.0,STARLINK-4103,PAYLOAD,2024-01-07 14:42:16,15.0882924,0.0001462,53.217,129.8929,62.1714,297.9426,0.00015407,2.164e-05,0.0,0 STARLINK-4103,1 53141U 22083K   24007.61268798  .00002164  00000-0  15407-3 0  9992,2 53141  53.2170 129.8929 0001462  62.1714 297.9426 15.08829240 81645,6917.913,95.438,540.79,538.767,0.0
53141.0,STARLINK-4103,PAYLOAD,2024-01-08 11:22:17,15.08835671,0.0001516,53.2168,126.0276,60.5611,299.5532,3.8348e-05,3.22e-06,0.0,0 STARLINK-4103,1 53141U 22083K   24008.47381276  .00000322  00000-0  38348-4 0  9998,2 53141  53.2168 126.0276 0001516  60.5611 299.5532 15.08835671 82400,6917.894,95.438,540.807,538.71,0.0
53141.0,STARLINK-4103,PAYLOAD,2024-01-08 14:33:03,15.08837848,0.0001486,53.217,125.4325,63.4877,296.6267,5.1244e-05,5.28e-06,0.0,0 STARLINK-4103,1 53141U 22083K   24008.60629120  .00000528  00000-0  51244-4 0  9994,2 53141  53.2170 125.4325 0001486  63.4877 296.6267 15.08837848 81795,6917.887,95.438,540.78,538.724,0.0
53141.0,STARLINK-4103,PAYLOAD,2024-01-09 11:13:03,15.08844593,0.0001244,53.2169,121.5666,74.6449,285.4681,8.3351e-05,1.039e-05,0.0,0 STARLINK-4103,1 53141U 22083K   24009.46740656  .00001039  00000-0  83351-4 0  9999,2 53141  53.2169 121.5666 0001244  74.6449 285.4681 15.08844593 82555,6917.866,95.437,540.592,538.871,0.0
53141.0,STARLINK-4103,PAYLOAD,2024-01-09 14:23:49,15.08859377,0.0001524,53.217,120.9715,88.9875,271.1292,-1.5896e-05,-5.41e-06,0.0,0 STARLINK-4103,1 53141U 22083K   24009.59987983 -.00000541  00000-0 -15896-4 0  9997,2 53141  53.2170 120.9715 0001524  88.9875 271.1292 15.08859377 81945,6917.821,95.436,540.74,538.632,0.0
53141.0,STARLINK-4103,PAYLOAD,2024-01-09 17:34:35,15.08850684,0.0001313,53.217,120.3766,78.3953,281.7186,0.0001443,2.01e-05,0.0,0 STARLINK-4103,1 53141U 22083K   24009.73236077  .00002010  00000-0  14430-3 0  9997,2 53141  53.2170 120.3766 0001313  78.3953 281.7186 15.08850684 81964,6917.848,95.437,540.621,538.804,0.0
53141.0,STARLINK-4103,PAYLOAD,2024-01-10 11:03:51,15.08834245,0.0001259,53.2169,117.1064,81.9168,278.1967,4.3439e-06,-2.19e-06,0.0,0 STARLINK-4103,1 53141U 22083K   24010.46101686 -.00000219  00000-0  43439-5 0  9999,2 53141  53.2169 117.1064 0001259  81.9168 278.1967 15.08834245 82709,6917.898,95.438,540.634,538.892,0.0
53141.0,STARLINK-4103,PAYLOAD,2024-01-10 17:25:23,15.08842828,0.0001301,53.2167,115.916,91.7649,268.3492,7.6045e-05,9.23e-06,0.0,0 STARLINK-4103,1 53141U 22083K   24010.72596959  .00000923  00000-0  76045-4 0  9998,2 53141  53.2167 115.9160 0001301  91.7649 268.3492 15.08842828 82745,6917.872,95.437,540.637,538.837,0.0
53141.0,STARLINK-4103,PAYLOAD,2024-01-11 14:05:24,15.08847693,0.0001747,53.2188,112.0536,65.2641,294.8533,6.8605e-05,8.04e-06,0.0,0 STARLINK-4103,1 53141U 22083K   24011.58708953  .00000804  00000-0  68605-4 0  9993,2 53141  53.2188 112.0536 0001747  65.2641 294.8533 15.08847693 82245,6917.857,95.437,540.93,538.513,0.0
53141.0,STARLINK-4103,PAYLOAD,2024-01-12 12:20:48,15.08842333,0.0001387,53.217,107.8868,91.5244,268.5907,5.4538e-05,5.8e-06,0.0,0 STARLINK-4103,1 53141U 22083K   24012.51445195  .00000580  00000-0  54538-4 0  9994,2 53141  53.2170 107.8868 0001387  91.5244 268.5907 15.08842333 83012,6917.873,95.437,540.698,538.779,0.0
53141.0,STARLINK-4103,PAYLOAD,2024-01-12 13:56:11,15.0882681,0.0001268,53.2173,107.5897,102.2384,257.875,0.00029932,4.477e-05,0.0,0 STARLINK-4103,1 53141U 22083K   24012.58069434  .00004477  00000-0  29932-3 0  9997,2 53141  53.2173 107.5897 0001268 102.2384 257.8750 15.08826810 82396,6917.921,95.438,540.663,538.909,0.0
53141.0,STARLINK-4103,PAYLOAD,2024-01-13 12:11:35,15.08848282,0.0001671,53.2176,103.4264,73.4122,286.7054,2.0478e-05,3.8e-07,0.0,0 STARLINK-4103,1 53141U 22083K   24013.50805188  .00000038  00000-0  20478-4 0  9990,2 53141  53.2176 103.4264 0001671  73.4122 286.7054 15.08848282 83160,6917.855,95.437,540.876,538.564,0.0
53141.0,STARLINK-4103,PAYLOAD,2024-01-13 15:22:21,15.08854497,0.0001579,53.2179,102.83,82.7976,277.3196,5.1277e-05,5.28e-06,0.0,0 STARLINK-4103,1 53141U 22083K   24013.64052620  .00000528  00000-0  51277-4 0  9995,2 53141  53.2179 102.8300 0001579  82.7976 277.3196 15.08854497 83184,6917.836,95.437,540.793,538.609,0.0
53141.0,STARLINK-4103,PAYLOAD,2024-01-14 12:02:22,15.08842823,0.0001529,53.217,98.9669,81.0276,279.0889,8.9983e-05,1.144e-05,0.0,0 STARLINK-4103,1 53141U 22083K   24014.50165432  .00001144  00000-0  89983-4 0  9997,2 53141  53.2170  98.9669 0001529  81.0276 279.0889 15.08842823 83311,6917.872,95.437,540.795,538.679,0.0
53141.0,STARLINK-4103,PAYLOAD,2024-01-15 11:53:09,15.08850945,0.0001531,53.2161,94.5066,88.5087,271.608,0.0001541,2.166e-05,0.0,0 STARLINK-4103,1 53141U 22083K   24015.49525217  .00002166  00000-0  15410-3 0  9995,2 53141  53.2161  94.5066 0001531  88.5087 271.6080 15.08850945 82830,6917.847,95.437,540.771,538.653,0.0
53141.0,STARLINK-4103,PAYLOAD,2024-01-16 11:43:57,15.08838559,0.00015,53.2179,90.0444,86.3336,273.7828,2.8455e-06,-2.43e-06,0.0,0 STARLINK-4103,1 53141U 22083K   24016.48886180 -.00000243  00000-0  28455-5 0  9994,2 53141  53.2179  90.0444 0001500  86.3336 273.7828 15.08838559 83616,6917.885,95.438,540.787,538.712,0.0
53141.0,STARLINK-4103,PAYLOAD,2024-01-16 13:19:20,15.08839205,0.000151,53.2179,89.7466,91.6901,268.4264,2.5426e-06,-2.48e-06,0.0,0 STARLINK-4103,1 53141U 22083K   24016.55510100 -.00000248  00000-0  25426-5 0  9998,2 53141  53.2179  89.7466 0001510  91.6901 268.4264 15.08839205 82997,6917.883,95.438,540.792,538.703,0.0
53141.0,STARLINK-4103,PAYLOAD,2024-01-17 09:59:21,15.08839339,0.0001478,53.2187,85.8803,97.8838,262.2322,3.6743e-06,-2.29e-06,0.0,0 STARLINK-4103,1 53141U 22083K   24017.41622404 -.00000229  00000-0  36743-5 0  9998,2 53141  53.2187  85.8803 0001478  97.8838 262.2322 15.08839339 83129,6917.882,95.438,540.77,538.725,0.0
53141.0,STARLINK-4103,PAYLOAD,2024-01-18 11:25:31,15.0884385,0.0001722,53.2187,81.1234,83.1998,276.919,0.00018005,2.579e-05,0.0,0 STARLINK-4103,1 53141U 22083K   24018.47606138  .00002579  00000-0  18005-3 0  9999,2 53141  53.2187  81.1234 0001722  83.1998 276.9190 15.08843850 83918,6917.869,95.437,540.925,538.542,0.0
53141.0,STARLINK-4103,PAYLOAD,2024-01-18 13:00:54,15.08846556,0.0001736,53.2187,80.8255,91.1113,269.0078,0.00020666,3.003e-05,0.0,0 STARLINK-4103,1 53141U 22083K   24018.54229900  .00003003  00000-0  20666-3 0  9994,2 53141  53.2187  80.8255 0001736  91.1113 269.0078 15.08846556 83295,6917.86,95.437,540.926,538.524,0.0
